H1 CPF 01  gfz 2022 07 27 00  7081 tandemx   
H2 1003001  6202 36605    2022 07 27 00 59 42 2022 08 01 00 00 42   120 1 1  0 0 0
H9
10 0 59790  59022.000000  0   -4118614.251  -1094378.949  -5419826.095
10 0 59790  59142.000000  0   -3462875.283   -691003.505  -5921973.097
10 0 59790  59262.000000  0   -2740013.302   -287706.044  -6320667.911
10 0 59790  59382.000000  0   -1962676.019    107450.416  -6609033.331
10 0 59790  59502.000000  0   -1144564.820    486785.266  -6782104.501
10 0 59790  59622.000000  0    -300195.845    843144.521  -6836904.604
10 0 59790  59742.000000  0     555351.814   1170032.167  -6772489.770
10 0 59790  59862.000000  0    1406697.634   1461724.467  -6589965.015
10 0 59790  59982.000000  0    2238430.805   1713368.795  -6292469.048
10 0 59790  60102.000000  0    3035384.110   1921063.867  -5885125.827
10 0 59790  60222.000000  0    3782906.920   2081919.798  -5374964.279
10 0 59790  60342.000000  0    4467133.056   2194097.972  -4770808.699
10 0 59790  60462.000000  0    5075241.771   2256830.314  -4083137.705
10 0 59790  60582.000000  0    5595704.179   2270416.308  -3323911.883
10 0 59790  60702.000000  0    6018510.166   2236197.930  -2506374.095
10 0 59790  60822.000000  0    6335372.621   2156513.005  -1644823.205
10 0 59790  60942.000000  0    6539900.378   2034627.113   -754363.548
10 0 59790  61062.000000  0    6627736.792   1874645.124    149363.162
10 0 59790  61182.000000  0    6596657.492   1681404.080   1050460.063
10 0 59790  61302.000000  0    6446626.379   1460351.352   1933060.951
10 0 59790  61422.000000  0    6179809.775   1217409.849   2781619.533
10 0 59790  61542.000000  0    5800543.413    958833.545   3581191.776
10 0 59790  61662.000000  0    5315256.419    691058.212   4317706.030
10 0 59790  61782.000000  0    4732353.059    420550.489   4978213.364
10 0 59790  61902.000000  0    4062058.594    153660.111   5551116.131
10 0 59790  62022.000000  0    3316229.103   -103523.269   6026370.030
10 0 59790  62142.000000  0    2508132.646   -345302.727   6395654.130
10 0 59790  62262.000000  0    1652208.032   -566495.085   6652510.697
10 0 59790  62382.000000  0     763803.083   -762538.572   6792453.461
10 0 59790  62502.000000  0    -141103.605   -929584.796   6813040.918
10 0 59790  62622.000000  0   -1046190.037  -1064573.176   6713915.073
10 0 59790  62742.000000  0   -1935084.143  -1165287.106   6496806.489
10 0 59790  62862.000000  0   -2791658.125  -1230389.987   6165505.204
10 0 59790  62982.000000  0   -3600320.170  -1259441.215   5725800.342
10 0 59790  63102.000000  0   -4346302.088  -1252893.016   5185386.289
10 0 59790  63222.000000  0   -5015935.117  -1212067.826   4553733.860
10 0 59790  63342.000000  0   -5596908.198  -1139115.286   3841928.492
10 0 59790  63462.000000  0   -6078502.409  -1036950.107   3062478.007
10 0 59790  63582.000000  0   -6451797.565   -909172.263   2229094.683
10 0 59790  63702.000000  0   -6709848.771   -759971.304   1356452.758
10 0 59790  63822.000000  0   -6847824.128   -594016.815    459923.406
10 0 59790  63942.000000  0   -6863099.466   -416337.767   -444704.094
10 0 59790  64062.000000  0   -6755309.209   -232193.710  -1341509.485
10 0 59790  64182.000000  0   -6526350.531    -46941.150  -2214730.341
10 0 59790  64302.000000  0   -6180343.977    134100.525  -3049045.024
10 0 59790  64422.000000  0   -5723550.074    305781.595  -3829847.867
10 0 59790  64542.000000  0   -5164242.565    463249.134  -4543506.364
10 0 59790  64662.000000  0   -4512545.200    602065.022  -5177596.352
10 0 59790  64782.000000  0   -3780235.954    718313.046  -5721111.297
10 0 59790  64902.000000  0   -2980524.353    808691.706  -6164643.801
10 0 59790  65022.000000  0   -2127806.913    870591.395  -6500536.130
10 0 59790  65142.000000  0   -1237406.520    902155.680  -6723001.396
10 0 59790  65262.000000  0    -325298.262    902325.355  -6828212.374
10 0 59790  65382.000000  0     592170.891    870864.178  -6814358.813
10 0 59790  65502.000000  0    1498566.708    808366.310  -6681677.188
10 0 59790  65622.000000  0    2377656.544    716245.497  -6432448.447
10 0 59790  65742.000000  0    3213694.321    596706.179  -6070962.758
10 0 59790  65862.000000  0    3991698.806    452696.788  -5603452.602
10 0 59790  65982.000000  0    4697720.426    287844.989  -5037995.811
10 0 59790  66102.000000  0    5319094.831    106377.400  -4384388.141
10 0 59790  66222.000000  0    5844677.621    -86976.254  -3653983.839
10 0 59790  66342.000000  0    6265053.644   -287092.456  -2859507.141
10 0 59790  66462.000000  0    6572718.222   -488574.723  -2014837.283
10 0 59790  66582.000000  0    6762224.501   -685883.196  -1134767.608
10 0 59790  66702.000000  0    6830291.422   -873469.426   -234744.510
10 0 59790  66822.000000  0    6775870.165  -1045913.702    669408.381
10 0 59790  66942.000000  0    6600166.164  -1198061.361   1561776.179
10 0 59790  67062.000000  0    6306616.201  -1325154.720   2426641.560
10 0 59790  67182.000000  0    5900819.067  -1422956.152   3248771.628
10 0 59790  67302.000000  0    5390422.839  -1487859.590   4013692.868
10 0 59790  67422.000000  0    4784972.604  -1516988.814   4707950.686
10 0 59790  67542.000000  0    4095722.193  -1508278.128   5319347.506
10 0 59790  67662.000000  0    3335415.942  -1460534.280   5837156.246
10 0 59790  67782.000000  0    2518043.812  -1373479.443   6252305.071
10 0 59790  67902.000000  0    1658577.647  -1247773.983   6557530.390
10 0 59790  68022.000000  0     772692.473  -1085018.841   6747498.764
10 0 59790  68142.000000  0    -123522.390   -887736.380   6818894.303
10 0 59790  68262.000000  0   -1013855.631   -659331.110   6770471.557
10 0 59790  68382.000000  0   -1882265.739   -404031.073   6603075.390
10 0 59790  68502.000000  0   -2713168.536   -126809.960   6319627.154
10 0 59790  68622.000000  0   -3491716.520    166708.515   5925077.998
10 0 59790  68742.000000  0   -4204066.741    470362.386   5426328.405
10 0 59790  68862.000000  0   -4837632.049    777577.649   4832113.372
10 0 59790  68982.000000  0   -5381310.919   1081506.781   4152855.176
10 0 59790  69102.000000  0   -5825690.566   1375177.098   3400483.903
10 0 59790  69222.000000  0   -6163218.684   1651645.493   2588229.953
10 0 59790  69342.000000  0   -6388340.984   1904156.087   1730390.776
10 0 59790  69462.000000  0   -6497600.837   2126297.194    842075.570
10 0 59790  69582.000000  0   -6489696.857   2312153.963    -61068.332
10 0 59790  69702.000000  0   -6365496.228   2456451.400   -963139.870
10 0 59790  69822.000000  0   -6128004.293   2554684.822  -1848273.005
10 0 59790  69942.000000  0   -5782291.839   2603235.120  -2700924.086
10 0 59790  70062.000000  0   -5335380.054   2599465.171  -3506151.932
10 0 59790  70182.000000  0   -4796087.892   2541794.270  -4249882.350
10 0 59790  70302.000000  0   -4174847.364   2429750.164  -4919152.812
10 0 59790  70422.000000  0   -3483491.165   2263997.867  -5502332.567
10 0 59790  70542.000000  0   -2735019.830   2046345.504  -5989315.291
10 0 59790  70662.000000  0   -1943352.924   1779727.155  -6371684.471
10 0 59790  70782.000000  0   -1123067.049   1468162.632  -6642847.272
10 0 59790  70902.000000  0    -289129.623   1116695.917  -6798136.309
10 0 59790  71022.000000  0     543368.894    731313.692  -6834880.658
10 0 59790  71142.000000  0    1359480.561    318845.607  -6752448.265
10 0 59790  71262.000000  0    2144663.501   -113154.356  -6552256.328
10 0 59790  71382.000000  0    2885034.795   -556542.494  -6237748.902
10 0 59790  71502.000000  0    3567612.702  -1002734.425  -5814344.282
10 0 59790  71622.000000  0    4180542.298  -1442866.148  -5289350.396
10 0 59790  71742.000000  0    4713304.172  -1867966.291  -4671851.155
10 0 59790  71862.000000  0    5156900.999  -2269136.488  -3972560.216
10 0 59790  71982.000000  0    5504017.837  -2637735.365  -3203645.145
10 0 59790  72102.000000  0    5749153.314  -2965562.794  -2378522.877
10 0 59790  72222.000000  0    5888716.941  -3245040.151  -1511628.717
10 0 59790  72342.000000  0    5921089.967  -3469382.024   -618164.042
10 0 59790  72462.000000  0    5846648.020  -3632755.610    286173.927
10 0 59790  72582.000000  0    5667743.662  -3730422.972   1185474.063
10 0 59790  72702.000000  0    5388649.518  -3758863.104   2063900.581
10 0 59790  72822.000000  0    5015460.192  -3715867.564   2905981.678
10 0 59790  72942.000000  0    4555958.674  -3600609.672   3696889.136
10 0 59790  73062.000000  0    4019451.093  -3413684.695   4422704.899
10 0 59790  73182.000000  0    3416573.167  -3157121.920   5070669.997
10 0 59790  73302.000000  0    2759071.580  -2834366.015   5629409.120
10 0 59790  73422.000000  0    2059569.255  -2450229.352   6089127.456
10 0 59790  73542.000000  0    1331317.665  -2010817.600   6441777.477
10 0 59790  73662.000000  0     587942.346  -1523429.953   6681193.783
10 0 59790  73782.000000  0    -156813.702   -996435.330   6803194.870
10 0 59790  73902.000000  0    -889343.938   -439127.123   6805651.098
10 0 59790  74022.000000  0   -1596425.686    138440.734   6688519.075
10 0 59790  74142.000000  0   -2265457.866    725634.733   6453842.458
10 0 59790  74262.000000  0   -2884685.276   1311436.724   6105718.736
10 0 59790  74382.000000  0   -3443406.205   1884649.693   5650232.447
10 0 59790  74502.000000  0   -3932160.842   2434111.652   5095355.583
10 0 59790  74622.000000  0   -4342896.716   2948914.722   4450814.187
10 0 59790  74742.000000  0   -4669107.763   3418623.669   3727922.339
10 0 59790  74862.000000  0   -4905943.427   3833489.655   2939386.065
10 0 59790  74982.000000  0   -5050285.164   4184655.480   2099080.652
10 0 59790  75102.000000  0   -5100789.624   4464347.474   1221804.125
10 0 59790  75222.000000  0   -5057894.890   4666047.817    323010.090
10 0 59790  75342.000000  0   -4923790.676   4784641.616   -581471.897
10 0 59790  75462.000000  0   -4702353.855   4816538.028  -1475724.216
99
